[{"OBJECT_NAME":"STARLINK-5819","OBJECT_ID":"2023-028AR","EPOCH":"2026-03-09T20:46:13.421568","MEAN_MOTION":14.98332198,"ECCENTRICITY":0.00027975,"INCLINATION":69.9999,"RA_OF_ASC_NODE":223.8414,"ARG_OF_PERICENTER":270.8149,"MEAN_ANOMALY":89.269,"EPHEMERIS_TYPE":0,"CLASSIFICATION_TYPE":"U","NORAD_CAT_ID":55780,"ELEMENT_SET_NO":999,"REV_AT_EPOCH":16656,"BSTAR":4.1584442e-5,"MEAN_MOTION_DOT":4.03e-6,"MEAN_MOTION_DDOT":0},{"OBJECT_NAME":"FENGYUN 1C DEB","OBJECT_ID":"1999-025EA","EPOCH":"2026-03-09T21:25:08.488704","MEAN_MOTION":14.56795996,"ECCENTRICITY":0.01928778,"INCLINATION":98.8218,"RA_OF_ASC_NODE":190.418,"ARG_OF_PERICENTER":17.5828,"MEAN_ANOMALY":343.1923,"EPHEMERIS_TYPE":0,"CLASSIFICATION_TYPE":"U","NORAD_CAT_ID":29832,"ELEMENT_SET_NO":999,"REV_AT_EPOCH":1524,"BSTAR":0.00013032505,"MEAN_MOTION_DOT":6.87e-6,"MEAN_MOTION_DDOT":0}]
